METOP-B                 
1 38771U 12049A   24181.13938804  .00000271  00000+0  14348-3 0  9996
2 38771  98.6272 238.0942 0001505  87.1750 272.9600 14.21444857611249
INSAT-3D                
1 39216U 13038B   24177.61602647 -.00000150  00000+0  00000+0 0  9994
2 39216   0.0603 100.9311 0000654 138.8040 338.3556  1.00271304 39841
FENGYUN 3C              
1 39260U 13052A   24181.24818122  .00000240  00000+0  14183-3 0  9990
2 39260  98.4281 180.2151 0009895 295.4318  64.5832 14.16223036557031
METEOR-M 2              
1 40069U 14037A   24181.21211415  .00000333  00000+0  17288-3 0  9994
2 40069  98.4362 174.9126 0005131 335.6900  24.4035 14.20986422517334
HIMAWARI-8              
1 40267U 14060A   24180.45826448 -.00000272  00000+0  00000+0 0  9996
2 40267   0.0442 203.0764 0001261 281.2860  98.2934  1.00273370 35556
FENGYUN 2G              
1 40367U 14090A   24180.90493125 -.00000299  00000+0  00000+0 0  9991
2 40367   3.8200  81.4145 0003285 113.2106 148.2040  1.00264569 34830
METEOSAT-11 (MSG-4)     
1 40732U 15034A   24180.89336694  .00000065  00000+0  00000+0 0  9991
2 40732   1.4135  69.3750 0000969 169.1854   9.8668  1.00266428    28
ELEKTRO-L 2             
1 41105U 15074A   24181.03169066 -.00000115  00000+0  00000+0 0  9991
2 41105   4.8715  79.3374 0000993 143.4248  51.7668  1.00270254 31310
INSAT-3DR               
1 41752U 16054A   24180.89979872 -.00000074  00000+0  00000+0 0  9999
2 41752   0.1318  93.3279 0010321 173.9642  48.1014  1.00271380 28613
HIMAWARI-9              
1 41836U 16064A   24180.90968493 -.00000272  00000+0  00000+0 0  9992
2 41836   0.0392 153.5782 0000878 325.0627 267.0863  1.00270739 28008
GOES 16                 
1 41866U 16071A   24180.80482927 -.00000244  00000+0  00000+0 0  9994
2 41866   0.0745 250.4994 0000281 212.7612  28.6514  1.00270540 27901
FENGYUN 4A              
1 41882U 16077A   24180.78859326 -.00000197  00000+0  00000+0 0  9993
2 41882   0.4874  85.8731 0008097 345.0129 217.2303  1.00267216 27729
CYGFM05                 
1 41884U 16078A   24181.17514199  .00013683  00000+0  49890-3 0  9993
2 41884  34.9554 225.1727 0012123 302.1148  57.8391 15.27268191418010
CYGFM04                 
1 41885U 16078B   24180.50232530  .00012802  00000+0  45472-3 0  9990
2 41885  34.9400 213.3940 0009470 318.1937  41.8055 15.28162115418066
CYGFM02                 
1 41886U 16078C   24180.52468671  .00013130  00000+0  46134-3 0  9991
2 41886  34.9508 215.4832 0012171 307.2784  52.6821 15.28484414417991
CYGFM01                 
1 41887U 16078D   24180.43990615  .00010811  00000+0  39717-3 0  9992
2 41887  34.9469 233.6868 0011893 284.1176  75.8217 15.27058531417731
CYGFM08                 
1 41888U 16078E   24181.16928345  .00013659  00000+0  48703-3 0  9993
2 41888  34.9480 217.1331 0012707 314.9409  45.0275 15.27992539418057
CYGFM07                 
1 41890U 16078G   24181.14401807  .00013363  00000+0  47252-3 0  9993
2 41890  34.9476 208.7106 0009237 321.5326  38.4730 15.28305310418167
CYGFM03                 
1 41891U 16078H   24181.17965582  .00013574  00000+0  48103-3 0  9992
2 41891  34.9493 209.6859 0010132 306.5784  53.3999 15.28221793418153
FENGYUN 3D              
1 43010U 17072A   24181.14922138  .00000238  00000+0  13486-3 0  9998
2 43010  98.9111 135.8743 0000951 354.2392   5.8773 14.19363103343116
NOAA 20 (JPSS-1)        
1 43013U 17073A   24181.11260932  .00000155  00000+0  94145-4 0  9996
2 43013  98.7065 118.8353 0001451 139.9235 220.2049 14.19537034342599
GOES 17                 
1 43226U 18022A   24180.90466065 -.00000087  00000+0  00000+0 0  9995
2 43226   0.0433 183.1255 0000951 317.4718 357.8410  1.00270825 23233
FENGYUN 2H              
1 43491U 18050A   24180.90718889 -.00000124  00000+0  00000+0 0  9996
2 43491   1.1728  87.2254 0001704  45.6815 190.2977  1.00267718 22237
METOP-C                 
1 43689U 18087A   24181.17780602  .00000295  00000+0  15511-3 0  9992
2 43689  98.7228 240.3142 0002966  70.4931 289.6566 14.21481270292826
GEO-KOMPSAT-2A          
1 43823U 18100A   24181.02063238 -.00000340  00000+0  00000+0 0  9996
2 43823   0.0440 176.2986 0002460 276.2785 320.6867  1.00273071 20463
METEOR-M2 2             
1 44387U 19038A   24181.16656172  .00000124  00000+0  73724-4 0  9990
2 44387  98.8271 150.4376 0000456 354.8804   5.2370 14.23897307259092
ARKTIKA-M 1             
1 47719U 21016A   24179.71968038  .00000184  00000+0  00000+0 0  9994
2 47719  63.1391 150.5690 6945047 268.6784  17.9137  2.00607946 24351
FENGYUN 3E              
1 49008U 21062A   24181.25754415  .00000083  00000+0  59888-4 0  9993
2 49008  98.7317 182.3742 0001966  35.5036 324.6271 14.19761190154700
GOES 18                 
1 51850U 22021A   24180.92132677  .00000100  00000+0  00000+0 0  9997
2 51850   0.0090  99.9681 0000383  62.2094 309.9825  1.00271418  8603
NOAA 21 (JPSS-2)        
1 54234U 22150A   24180.86630944  .00000203  00000+0  11716-3 0  9996
2 54234  98.7518 118.6233 0001930  95.4742 264.6654 14.19531446 84638
METEOSAT-12 (MTG-I1)    
1 54743U 22170C   24181.18625755 -.00000003  00000+0  00000+0 0  9992
2 54743   0.5307  43.6706 0001586  52.5161 248.2505  1.00275051  5772
TIANMU-1 03             
1 55973U 23039A   24181.14971495  .00013169  00000+0  56626-3 0  9999
2 55973  97.4700 331.6997 0006181 130.2490 229.9287 15.22759975 70672
TIANMU-1 04             
1 55974U 23039B   24181.13296521  .00012993  00000+0  55695-3 0  9998
2 55974  97.4621 331.2319 0007318 128.2535 231.9361 15.22861489 70668
TIANMU-1 05             
1 55975U 23039C   24181.11679740  .00000268  00000+0  14506-4 0  9994
2 55975  97.4666 331.5506 0005417 145.3831 214.7759 15.22756609 70652
TIANMU-1 06             
1 55976U 23039D   24181.16566229  .00005818  00000+0  25058-3 0  9996
2 55976  97.4685 331.7194 0006055 144.7578 215.4060 15.22964878 70662
METEOR-M2 3             
1 57166U 23091A   24181.20176498  .00000081  00000+0  54438-4 0  9999
2 57166  98.7120 235.7674 0005162  95.1355 265.0413 14.23901521 52332
TIANMU-1 07             
1 57399U 23101A   24181.16470237  .00009739  00000+0  49127-3 0  9999
2 57399  97.3623 237.9821 0006376 136.1280 224.0461 15.17313627 52248
TIANMU-1 08             
1 57400U 23101B   24181.13398691  .00008807  00000+0  44433-3 0  9992
2 57400  97.3610 237.8237 0008513 143.4895 216.6921 15.17323805 52231
TIANMU-1 09             
1 57401U 23101C   24181.18297687  .00010162  00000+0  51225-3 0  9995
2 57401  97.3565 237.7066 0008948 140.3739 219.8150 15.17308786 52246
TIANMU-1 10             
1 57402U 23101D   24181.14931155  .00009348  00000+0  47152-3 0  9995
2 57402  97.3648 237.9613 0011220 140.1622 220.0437 15.17289835 52239
FENGYUN 3F              
1 57490U 23111A   24181.21131234  .00000187  00000+0  10882-3 0  9993
2 57490  98.7693 250.2318 0001890  78.8072 281.3317 14.19831011 46970
ARKTIKA-M 2             
1 58584U 23198A   24179.45202540  .00000143  00000+0  00000+0 0  9994
2 58584  63.2508 234.3936 6980212 269.8501  17.2465  2.00613333  3880
TIANMU-1 11             
1 58645U 23205A   24181.13860357  .00008791  00000+0  46997-3 0  9991
2 58645  97.4029 205.9199 0011403  13.0010 347.1514 15.15254112 28327
TIANMU-1 12             
1 58646U 23205B   24181.15383771  .00009497  00000+0  50706-3 0  9991
2 58646  97.4012 205.8643 0009684   6.3605 353.7749 15.15294232 28315
TIANMU-1 13             
1 58647U 23205C   24181.12057339  .00007982  00000+0  42782-3 0  9999
2 58647  97.4042 205.8305 0008967 350.6070   9.4994 15.15215680 28304
TIANMU-1 14             
1 58648U 23205D   24181.17058576  .00008521  00000+0  45624-3 0  9997
2 58648  97.3966 205.7321 0009798 352.6775   7.4312 15.15223612 28310
TIANMU-1 19             
1 58660U 23208A   24181.17782873  .00010455  00000+0  55867-3 0  9997
2 58660  97.4121 293.2699 0008094 330.8955  29.1825 15.15252251 27987
TIANMU-1 20             
1 58661U 23208B   24181.24110306  .00009952  00000+0  52006-3 0  9994
2 58661  97.4048 293.3084 0009099 341.3437  18.7461 15.16046825 28006
TIANMU-1 21             
1 58662U 23208C   24181.16102270  .00010428  00000+0  53104-3 0  9997
2 58662  97.4085 293.5108 0008729 341.7010  18.3908 15.16947729 28002
TIANMU-1 22             
1 58663U 23208D   24181.19446594  .00010421  00000+0  55750-3 0  9993
2 58663  97.4104 293.3594 0004801   1.2730 358.8513 15.15227407 27990
TIANMU-1 15             
1 58700U 24004A   24181.16905012  .00008864  00000+0  47483-3 0  9994
2 58700  97.4632   2.0522 0010195  20.3557 339.8079 15.15195755 26586
TIANMU-1 16             
1 58701U 24004B   24181.15167134  .00008306  00000+0  44476-3 0  9999
2 58701  97.4557   1.9044 0010346  26.0542 334.1209 15.15230342 26580
TIANMU-1 17             
1 58702U 24004C   24181.13677795  .00008550  00000+0  45826-3 0  9998
2 58702  97.4599   2.0255 0008048  22.6246 337.5339 15.15203140 26578
TIANMU-1 18             
1 58703U 24004D   24181.18583194  .00009127  00000+0  48858-3 0  9992
2 58703  97.4616   2.1482 0007031  13.9844 346.1582 15.15233483 26580
INSAT-3DS               
1 58990U 24033A   24171.63670715 -.00000142  00000+0  00000+0 0  9999
2 58990   0.0159 349.8168 0010402 105.1251 125.6022  1.00268037   992
METEOR-M2 4             
1 59051U 24039A   24181.16492125  .00000109  00000+0  68470-4 0  9992
2 59051  98.5980 142.7636 0008289  89.7805 270.4322 14.22234969 17194
